[{"OBJECT_NAME":"ONEWEB-0271","OBJECT_ID":"2021-060Y","EPOCH":"2026-03-09T22:03:05.091552","MEAN_MOTION":13.16596516,"ECCENTRICITY":0.00017575,"INCLINATION":87.9004,"RA_OF_ASC_NODE":248.5173,"ARG_OF_PERICENTER":104.7169,"MEAN_ANOMALY":255.4157,"EPHEMERIS_TYPE":0,"CLASSIFICATION_TYPE":"U","NORAD_CAT_ID":48989,"ELEMENT_SET_NO":999,"REV_AT_EPOCH":22660,"BSTAR":-0.00010579965,"MEAN_MOTION_DOT":-2.8e-7,"MEAN_MOTION_DDOT":0},{"OBJECT_NAME":"SL-14 DEB","OBJECT_ID":"1991-056BK","EPOCH":"2026-03-08T19:05:09.771072","MEAN_MOTION":13.19468012,"ECCENTRICITY":0.00216461,"INCLINATION":82.5627,"RA_OF_ASC_NODE":205.6097,"ARG_OF_PERICENTER":347.4477,"MEAN_ANOMALY":12.6105,"EPHEMERIS_TYPE":0,"CLASSIFICATION_TYPE":"U","NORAD_CAT_ID":45321,"ELEMENT_SET_NO":999,"REV_AT_EPOCH":29013,"BSTAR":0.00036913689,"MEAN_MOTION_DOT":1.6e-6,"MEAN_MOTION_DDOT":0}]
